{
"type": "FeatureCollection",
"name": "fire_stations",
"crs": { "type": "name", "properties": { "name": "urn:ogc:def:crs:OGC:1.3:CRS84" } },
"features": [
{ "type": "Feature", "properties": { "element": "node", "id": 3534945477, "name": "San Francisco Fire Station 4", "amenity": "fire_station" }, "geometry": { "type": "Point", "coordinates": [ -122.3891338, 37.7728017 ] } },
{ "type": "Feature", "properties": { "element": "way", "id": 32650734, "name": "San Francisco Fire Station 51", "amenity": "fire_station" }, "geometry": { "type": "Point", "coordinates": [ -122.455495509293243, 37.8016519145445 ] } },
{ "type": "Feature", "properties": { "element": "way", "id": 35266543, "name": "San Francisco Fire Station 13", "amenity": "fire_station" }, "geometry": { "type": "Point", "coordinates": [ -122.40138156377931, 37.795530207145674 ] } },
{ "type": "Feature", "properties": { "element": "way", "id": 36950390, "name": "San Francisco Fire Station 10", "amenity": "fire_station" }, "geometry": { "type": "Point", "coordinates": [ -122.446832983781817, 37.785607137391899 ] } },
{ "type": "Feature", "properties": { "element": "way", "id": 104599984, "name": "San Francisco Fire Station 35", "amenity": "fire_station" }, "geometry": { "type": "Point", "coordinates": [ -122.388468518767652, 37.790205489447565 ] } },
{ "type": "Feature", "properties": { "element": "way", "id": 115433822, "name": "San Francisco Fire Station 6", "amenity": "fire_station" }, "geometry": { "type": "Point", "coordinates": [ -122.430865313789909, 37.767089341812962 ] } },
{ "type": "Feature", "properties": { "element": "way", "id": 159024975, "name": "San Francisco Fire Station 15", "amenity": "fire_station" }, "geometry": { "type": "Point", "coordinates": [ -122.452890825479315, 37.723496549533138 ] } },
{ "type": "Feature", "properties": { "element": "way", "id": 161380478, "name": "San Francisco Fire Station 37", "amenity": "fire_station" }, "geometry": { "type": "Point", "coordinates": [ -122.39923488036446, 37.757403660915926 ] } },
{ "type": "Feature", "properties": { "element": "way", "id": 161385045, "name": "San Francisco Fire Station 7", "amenity": "fire_station" }, "geometry": { "type": "Point", "coordinates": [ -122.415120986405512, 37.760161155012838 ] } },
{ "type": "Feature", "properties": { "element": "way", "id": 161502029, "name": "San Francisco Fire Station 8", "amenity": "fire_station" }, "geometry": { "type": "Point", "coordinates": [ -122.396731993842138, 37.777264215041676 ] } },
{ "type": "Feature", "properties": { "element": "way", "id": 161502396, "name": "San Francisco Fire Station 11", "amenity": "fire_station" }, "geometry": { "type": "Point", "coordinates": [ -122.426478240381357, 37.748805314439792 ] } },
{ "type": "Feature", "properties": { "element": "way", "id": 161502400, "name": "San Francisco Fire Station 9", "amenity": "fire_station" }, "geometry": { "type": "Point", "coordinates": [ -122.401254221528546, 37.745239663358049 ] } },
{ "type": "Feature", "properties": { "element": "way", "id": 161504247, "name": "San Francisco Fire Station 12", "amenity": "fire_station" }, "geometry": { "type": "Point", "coordinates": [ -122.452652525665258, 37.763461573744507 ] } },
{ "type": "Feature", "properties": { "element": "way", "id": 161504250, "name": "San Francisco Fire Station 14", "amenity": "fire_station" }, "geometry": { "type": "Point", "coordinates": [ -122.48603935805383, 37.779002517077437 ] } },
{ "type": "Feature", "properties": { "element": "way", "id": 161504253, "name": "San Francisco Fire Station 16", "amenity": "fire_station" }, "geometry": { "type": "Point", "coordinates": [ -122.436728422358726, 37.798610605056638 ] } },
{ "type": "Feature", "properties": { "element": "way", "id": 161585358, "name": "San Francisco Fire Station 17", "amenity": "fire_station" }, "geometry": { "type": "Point", "coordinates": [ -122.385041216759575, 37.727514294898484 ] } },
{ "type": "Feature", "properties": { "element": "way", "id": 161843742, "name": "San Francisco Fire Station 28", "amenity": "fire_station" }, "geometry": { "type": "Point", "coordinates": [ -122.409384481487734, 37.802557388327365 ] } },
{ "type": "Feature", "properties": { "element": "way", "id": 162470885, "name": "San Francisco Fire Station 18", "amenity": "fire_station" }, "geometry": { "type": "Point", "coordinates": [ -122.490556138204255, 37.750991159539737 ] } },
{ "type": "Feature", "properties": { "element": "way", "id": 162470913, "name": "San Francisco Fire Station 23", "amenity": "fire_station" }, "geometry": { "type": "Point", "coordinates": [ -122.504641330648511, 37.761418381535073 ] } },
{ "type": "Feature", "properties": { "element": "way", "id": 162518021, "name": "San Francisco Fire Station 31", "amenity": "fire_station" }, "geometry": { "type": "Point", "coordinates": [ -122.471199087771595, 37.779855164310732 ] } },
{ "type": "Feature", "properties": { "element": "way", "id": 218148097, "name": "San Francisco Fire Station 29", "amenity": "fire_station" }, "geometry": { "type": "Point", "coordinates": [ -122.4043895, 37.7661604 ] } },
{ "type": "Feature", "properties": { "element": "way", "id": 225733614, "name": "San Francisco Fire Station 1", "amenity": "fire_station" }, "geometry": { "type": "Point", "coordinates": [ -122.404099824273331, 37.779416804575767 ] } },
{ "type": "Feature", "properties": { "element": "way", "id": 256728885, "name": "San Francisco Fire Station 36", "amenity": "fire_station" }, "geometry": { "type": "Point", "coordinates": [ -122.421225154192229, 37.774960488183687 ] } },
{ "type": "Feature", "properties": { "element": "way", "id": 256998543, "name": "San Francisco Fire Station 38", "amenity": "fire_station" }, "geometry": { "type": "Point", "coordinates": [ -122.429856133863652, 37.789680503069256 ] } },
{ "type": "Feature", "properties": { "element": "way", "id": 259222511, "name": "San Francisco Fire Station 41", "amenity": "fire_station" }, "geometry": { "type": "Point", "coordinates": [ -122.416509681442363, 37.793382285014417 ] } },
{ "type": "Feature", "properties": { "element": "way", "id": 260026187, "name": "San Francisco Fire Station 3", "amenity": "fire_station" }, "geometry": { "type": "Point", "coordinates": [ -122.41932, 37.7866453 ] } },
{ "type": "Feature", "properties": { "element": "way", "id": 261466912, "name": "San Francisco Fire Station 21", "amenity": "fire_station" }, "geometry": { "type": "Point", "coordinates": [ -122.440302957683073, 37.775404273368594 ] } },
{ "type": "Feature", "properties": { "element": "way", "id": 265622325, "name": "San Francisco Fire Station 24", "amenity": "fire_station" }, "geometry": { "type": "Point", "coordinates": [ -122.44109398586032, 37.753138350482757 ] } },
{ "type": "Feature", "properties": { "element": "way", "id": 265868527, "name": "San Francisco Fire Station 20", "amenity": "fire_station" }, "geometry": { "type": "Point", "coordinates": [ -122.456203315149736, 37.751169204464269 ] } },
{ "type": "Feature", "properties": { "element": "way", "id": 267692250, "name": "San Francisco Fire Station 22", "amenity": "fire_station" }, "geometry": { "type": "Point", "coordinates": [ -122.473699683934143, 37.763957152290402 ] } },
{ "type": "Feature", "properties": { "element": "way", "id": 269223488, "name": "San Francisco Fire Station 40", "amenity": "fire_station" }, "geometry": { "type": "Point", "coordinates": [ -122.47530470418782, 37.747611295096085 ] } },
{ "type": "Feature", "properties": { "element": "way", "id": 271872797, "name": "San Francisco Fire Station 26", "amenity": "fire_station" }, "geometry": { "type": "Point", "coordinates": [ -122.433295446492679, 37.740280747756358 ] } },
{ "type": "Feature", "properties": { "element": "way", "id": 272841233, "name": "San Francisco Fire Station 32", "amenity": "fire_station" }, "geometry": { "type": "Point", "coordinates": [ -122.421191973254665, 37.736344462782178 ] } },
{ "type": "Feature", "properties": { "element": "way", "id": 277445961, "name": "San Francisco Fire Station 39", "amenity": "fire_station" }, "geometry": { "type": "Point", "coordinates": [ -122.458651469199765, 37.740018431918656 ] } },
{ "type": "Feature", "properties": { "element": "way", "id": 287906465, "name": "San Francisco Fire Station 25", "amenity": "fire_station" }, "geometry": { "type": "Point", "coordinates": [ -122.386918071603745, 37.746643002886429 ] } },
{ "type": "Feature", "properties": { "element": "way", "id": 288487230, "name": "San Francisco Fire Station 2", "amenity": "fire_station" }, "geometry": { "type": "Point", "coordinates": [ -122.409906924764911, 37.797038775317048 ] } },
{ "type": "Feature", "properties": { "element": "way", "id": 288963123, "name": "San Francisco Fire Station 19", "amenity": "fire_station" }, "geometry": { "type": "Point", "coordinates": [ -122.478903213015641, 37.727825087949249 ] } },
{ "type": "Feature", "properties": { "element": "way", "id": 289774621, "name": "San Francisco Fire Station 44", "amenity": "fire_station" }, "geometry": { "type": "Point", "coordinates": [ -122.400436082454092, 37.716649206681566 ] } },
{ "type": "Feature", "properties": { "element": "way", "id": 290532824, "name": "San Francisco Fire Station 33", "amenity": "fire_station" }, "geometry": { "type": "Point", "coordinates": [ -122.458602255223227, 37.7108619859372 ] } },
{ "type": "Feature", "properties": { "element": "way", "id": 290557232, "name": "San Francisco Fire Station 42", "amenity": "fire_station" }, "geometry": { "type": "Point", "coordinates": [ -122.405559334249148, 37.731579359854031 ] } },
{ "type": "Feature", "properties": { "element": "way", "id": 290682028, "name": "San Francisco Fire Station 43", "amenity": "fire_station" }, "geometry": { "type": "Point", "coordinates": [ -122.431643307836808, 37.716363098776057 ] } },
{ "type": "Feature", "properties": { "element": "way", "id": 399597024, "name": "San Francisco Fire Station 34", "amenity": "fire_station" }, "geometry": { "type": "Point", "coordinates": [ -122.502594229867427, 37.779468329383 ] } },
{ "type": "Feature", "properties": { "element": "way", "id": 547224749, "name": "San Francisco Fire Station 5", "amenity": "fire_station" }, "geometry": { "type": "Point", "coordinates": [ -122.430747023272744, 37.780394533520386 ] } },
{ "type": "Feature", "properties": { "element": "way", "id": 764313741, "name": "San Francisco Fire Station 48", "amenity": "fire_station" }, "geometry": { "type": "Point", "coordinates": [ -122.369306360793274, 37.826839299271612 ] } },
{ "type": "Feature", "properties": { "element": "way", "id": 966317814, "name": "San Francisco Fire Station 49", "amenity": "fire_station" }, "geometry": { "type": "Point", "coordinates": [ -122.401889635373735, 37.744574686602604 ] } }
]
}
